[{"OBJECT_NAME":"STARLINK-30966","OBJECT_ID":"2023-183T","EPOCH":"2026-03-09T06:50:36.133152","MEAN_MOTION":15.27588736,"ECCENTRICITY":0.00016028,"INCLINATION":43.0015,"RA_OF_ASC_NODE":43.7959,"ARG_OF_PERICENTER":275.5141,"MEAN_ANOMALY":84.5528,"EPHEMERIS_TYPE":0,"CLASSIFICATION_TYPE":"U","NORAD_CAT_ID":58454,"ELEMENT_SET_NO":999,"REV_AT_EPOCH":12667,"BSTAR":6.2946626e-5,"MEAN_MOTION_DOT":1.471e-5,"MEAN_MOTION_DDOT":0},{"OBJECT_NAME":"OBJECT D","OBJECT_ID":"2021-102D","EPOCH":"2026-03-09T14:47:14.426880","MEAN_MOTION":15.2846442,"ECCENTRICITY":0.0009157,"INCLINATION":97.3342,"RA_OF_ASC_NODE":112.2633,"ARG_OF_PERICENTER":187.6206,"MEAN_ANOMALY":172.4897,"EPHEMERIS_TYPE":0,"CLASSIFICATION_TYPE":"U","NORAD_CAT_ID":49398,"ELEMENT_SET_NO":999,"REV_AT_EPOCH":23880,"BSTAR":0.00046011,"MEAN_MOTION_DOT":0.00012697,"MEAN_MOTION_DDOT":0}]
